OBJECT_NAME,OBJECT_ID,EPOCH,MEAN_MOTION,ECCENTRICITY,INCLINATION,RA_OF_ASC_NODE,ARG_OF_PERICENTER,MEAN_ANOMALY,EPHEMERIS_TYPE,CLASSIFICATION_TYPE,NORAD_CAT_ID,ELEMENT_SET_NO,REV_AT_EPOCH,BSTAR,MEAN_MOTION_DOT,MEAN_MOTION_DDOT
STARLINK-1540,2020-055AA,2026-06-07T23:47:04.269696,15.3169906,0.00012389,53.1613,54.1551,93.1739,266.9404,0,U,46051,999,32291,5.3051817000000006e-05,1.2810000000000003e-05,0.0
STARLINK-1541,2020-055AB,2026-06-08T08:00:04.000032,15.84365975,0.00038519,53.158,36.2058,234.4847,186.0906,0,U,46052,999,601,0.00048100754999999995,0.00112603,0.0
STARLINK-1543,2020-055AC,2026-06-08T00:40:43.697856,15.31692741,0.00011048,53.1601,53.7884,82.8447,277.268,0,U,46053,999,32291,-5.6642294e-05,-2.122e-05,0.0
STARLINK-1548,2020-055AD,2026-06-07T23:26:54.156480,15.31691406,0.00016056,53.1618,54.097,92.9776,267.1409,0,U,46054,999,32290,-9.081996100000001e-05,-3.1820000000000004e-05,0.0
STARLINK-1554,2020-055AE,2026-06-08T00:34:00.086304,15.3174654,5.4560000000000006e-05,53.16,53.8263,50.8815,309.2235,0,U,46055,999,32291,-0.00074978986,-0.00023592,0.0
STARLINK-1564,2020-055AH,2026-06-08T00:19:09.137280,15.3017729,0.0001032,53.1613,54.8251,90.6896,269.4223,0,U,46058,999,32289,-3.2928277000000005e-05,-1.3330000000000001e-05,0.0
STARLINK-1570,2020-055AJ,2026-06-07T23:40:17.454432,15.3171524,6.49e-05,53.1595,53.8816,45.2718,314.8336,0,U,46059,999,32286,-0.00071212763,-0.00022407000000000001,0.0
STARLINK-1572,2020-055AK,2026-06-07T23:51:46.813248,15.30190115,0.00013798,53.1596,54.663,111.8752,248.2395,0,U,46060,999,32286,-1.1473172e-05,-6.99e-06,0.0
STARLINK-1573,2020-055AL,2026-06-07T23:20:10.529376,15.31691363,0.00012568,53.1606,53.9137,105.8395,254.2745,0,U,46061,999,32290,-2.4358017e-05,-1.1210000000000001e-05,0.0
STARLINK-1577,2020-055AN,2026-06-08T00:00:26.316576,15.3169358,8.944000000000001e-05,53.1587,53.7812,89.7854,270.325,0,U,46063,999,32290,-4.3529056e-05,-1.715e-05,0.0
STARLINK-1583,2020-055AP,2026-06-07T22:46:43.094496,15.31687341,0.00017404,53.1629,54.5184,92.4044,267.7156,0,U,46064,999,32288,-4.717786e-06,-5.12e-06,0.0
STARLINK-1536,2020-055AV,2026-06-05T20:41:49.159392,15.31704463,0.0001669,53.1608,51.6322,126.384,233.7315,0,U,46070,999,32274,6.8604714e-05,1.764e-05,0.0
STARLINK-1542,2020-055AY,2026-06-07T23:23:39.079104,15.31694225,0.00010493,53.1596,44.7559,104.8059,255.3059,0,U,46073,999,32301,-7.806156000000001e-05,-2.786e-05,0.0
STARLINK-1549,2020-055AZ,2026-06-07T22:25:45.439680,15.29314359,0.00018223,53.0632,42.1024,194.7988,165.2958,0,U,46074,999,32303,0.0013780437,0.00039573,0.0
STARLINK-1551,2020-055BA,2026-06-07T22:32:03.732576,15.30183066,0.00010613,53.1605,41.8652,96.2209,263.8913,0,U,46075,999,32305,5.2486594000000004e-05,1.195e-05,0.0
STARLINK-1552,2020-055BB,2026-06-07T22:15:24.012864,15.31691857,0.00013134,53.1628,41.5264,95.9343,264.1808,0,U,46076,999,32304,-4.0056202e-05,-1.6080000000000002e-05,0.0
STARLINK-1559,2020-055BC,2026-06-07T20:37:08.539104,15.38317278,0.0001115,53.0245,11.335,112.356,247.7561,0,U,46077,999,32342,0.0010837874,0.00041377,0.0
STARLINK-1566,2020-055BE,2026-06-07T22:22:04.897632,15.31693187,0.00012633,53.1621,41.3585,85.7028,274.4118,0,U,46079,999,32306,-2.1692356000000002e-05,-1.038e-05,0.0
STARLINK-1568,2020-055BF,2026-06-07T17:59:47.112576,15.54231765,0.00029809,53.0582,320.7509,69.3565,290.7764,0,U,46080,999,32416,0.00076214386,0.00050425,0.0
STARLINK-1578,2020-055BH,2026-06-07T22:28:24.349152,15.31689402,0.00014663,53.1618,41.8507,126.3278,233.7859,0,U,46082,999,32305,3.2238519999999997e-06,-2.6499999999999996e-06,0.0
STARLINK-1579,2020-055BJ,2026-06-07T22:08:40.048800,15.316887059999999,0.00011623,53.1603,41.4549,95.0593,265.0541,0,U,46083,999,32305,-2.3759477000000006e-05,-1.1020000000000001e-05,0.0
BSAT-4B,2020-056A,2026-06-07T23:47:54.763584,1.00270089,0.00040509,0.0494,168.0088,306.4242,248.7625,0,U,46112,999,2129,0.0,-3.35e-06,0.0
MEV-2,2020-056B,2026-06-07T21:58:40.430208,1.00271594,4.465e-05,0.0048000000000000004,329.6678,189.7889,65.5178,0,U,46113,999,8044,0.0,4e-08,0.0
GALAXY 30 (G-30),2020-056C,2026-06-07T23:05:58.462944,1.00272767,0.00022381000000000001,0.0178,358.1248,76.5119,43.2111,0,U,46114,999,2120,0.0,5.2e-07,0.0
STARLINK-1622,2020-057M,2026-06-08T08:00:04.000032,15.85033722,0.00069834,53.0141,133.5423,64.9847,214.9598,0,U,46128,999,601,0.00069471239,0.00169595,0.0
STARLINK-1623,2020-057N,2026-06-08T08:00:04.000032,15.74931565,0.00063466,53.0409,171.7814,32.2932,66.0527,0,U,46129,999,594,0.00066996979,0.0010203999999999999,0.0
STARLINK-1596,2020-057AA,2026-06-08T05:11:58.806240,15.59674131,0.00069348,53.0348,154.8963,34.224,325.9218,0,U,46141,999,32133,0.0010712327000000001,0.00087613,0.0
STARLINK-1597,2020-057AB,2026-06-07T09:42:03.781152,15.74536378,0.00049069,53.0403,216.1516,26.886400000000002,333.2408,0,U,46142,999,32039,0.0007304633,0.00109457,0.0
STARLINK-1606,2020-057AD,2026-06-08T08:00:04.000032,15.94451569,0.00018669000000000002,53.0327,164.3786,146.3784,252.2613,0,U,46144,999,586,0.0008957450499999999,0.0034310300000000003,5.717962800000001e-05
