STARLINK-1540           
1 46051U 20055AA  26158.99102164  .00001281  00000+0  53052-4 0  9992
2 46051  53.1613  54.1551 0001238  93.1739 266.9404 15.31699060322912
STARLINK-1541           
1 46052U 20055AB  26159.33337963  .00112603  00000+0  48101-3 0  9998
2 46052  53.1580  36.2058 0003851 234.4847 186.0906 15.84365975  6014
STARLINK-1543           
1 46053U 20055AC  26159.02828354 -.00002122  00000+0 -56642-4 0  9990
2 46053  53.1601  53.7884 0001104  82.8447 277.2680 15.31692741322918
STARLINK-1548           
1 46054U 20055AD  26158.97701570 -.00003182  00000+0 -90820-4 0  9997
2 46054  53.1618  54.0970 0001605  92.9776 267.1409 15.31691406322903
STARLINK-1554           
1 46055U 20055AE  26159.02361211 -.00023592  00000+0 -74979-3 0  9992
2 46055  53.1600  53.8263 0000545  50.8815 309.2235 15.31746540322912
STARLINK-1564           
1 46058U 20055AH  26159.01330020 -.00001333  00000+0 -32928-4 0  9996
2 46058  53.1613  54.8251 0001032  90.6896 269.4223 15.30177290322890
STARLINK-1570           
1 46059U 20055AJ  26158.98631313 -.00022407  00000+0 -71213-3 0  9995
2 46059  53.1595  53.8816 0000649  45.2718 314.8336 15.31715240322869
STARLINK-1572           
1 46060U 20055AK  26158.99429182 -.00000699  00000+0 -11473-4 0  9999
2 46060  53.1596  54.6630 0001379 111.8752 248.2395 15.30190115322866
STARLINK-1573           
1 46061U 20055AL  26158.97234409 -.00001121  00000+0 -24358-4 0  9991
2 46061  53.1606  53.9137 0001256 105.8395 254.2745 15.31691363322906
STARLINK-1577           
1 46063U 20055AN  26159.00030459 -.00001715  00000+0 -43529-4 0  9997
2 46063  53.1587  53.7812 0000894  89.7854 270.3250 15.31693580322904
STARLINK-1583           
1 46064U 20055AP  26158.94910989 -.00000512  00000+0 -47178-5 0  9994
2 46064  53.1629  54.5184 0001740  92.4044 267.7156 15.31687341322886
STARLINK-1536           
1 46070U 20055AV  26156.86237453  .00001764  00000+0  68605-4 0  9993
2 46070  53.1608  51.6322 0001669 126.3840 233.7315 15.31704463322743
STARLINK-1542           
1 46073U 20055AY  26158.97475786 -.00002786  00000+0 -78062-4 0  9998
2 46073  53.1596  44.7559 0001049 104.8059 255.3059 15.31694225323012
STARLINK-1549           
1 46074U 20055AZ  26158.93455370  .00039573  00000+0  13780-2 0  9998
2 46074  53.0632  42.1024 0001822 194.7988 165.2958 15.29314359323033
STARLINK-1551           
1 46075U 20055BA  26158.93893209  .00001195  00000+0  52487-4 0  9994
2 46075  53.1605  41.8652 0001061  96.2209 263.8913 15.30183066323054
STARLINK-1552           
1 46076U 20055BB  26158.92736126 -.00001608  00000+0 -40056-4 0  9998
2 46076  53.1628  41.5264 0001313  95.9343 264.1808 15.31691857323040
STARLINK-1559           
1 46077U 20055BC  26158.85912661  .00041377  00000+0  10838-2 0  9999
2 46077  53.0245  11.3350 0001115 112.3560 247.7561 15.38317278323425
STARLINK-1566           
1 46079U 20055BE  26158.93200113 -.00001038  00000+0 -21692-4 0  9996
2 46079  53.1621  41.3585 0001263  85.7028 274.4118 15.31693187323069
STARLINK-1568           
1 46080U 20055BF  26158.74985084  .00050425  00000+0  76214-3 0  9995
2 46080  53.0582 320.7509 0002980  69.3565 290.7764 15.54231765324162
STARLINK-1578           
1 46082U 20055BH  26158.93639293 -.00000265  00000+0  32239-5 0  9995
2 46082  53.1618  41.8507 0001466 126.3278 233.7859 15.31689402323056
STARLINK-1579           
1 46083U 20055BJ  26158.92268575 -.00001102  00000+0 -23759-4 0  9994
2 46083  53.1603  41.4549 0001162  95.0593 265.0541 15.31688706323050
BSAT-4B                 
1 46112U 20056A   26158.99160606 -.00000335  00000+0  00000+0 0  9996
2 46112   0.0494 168.0088 0004050 306.4242 248.7625  1.00270089 21299
MEV-2                   
1 46113U 20056B   26158.91574572  .00000004  00000+0  00000+0 0  9992
2 46113   0.0048 329.6678 0000446 189.7889  65.5178  1.00271594 80441
GALAXY 30 (G-30)        
1 46114U 20056C   26158.96248221  .00000052  00000+0  00000+0 0  9990
2 46114   0.0178 358.1248 0002238  76.5119  43.2111  1.00272767 21208
STARLINK-1622           
1 46128U 20057M   26159.33337963  .00169595  00000+0  69471-3 0  9999
2 46128  53.0141 133.5423 0006983  64.9847 214.9598 15.85033722  6013
STARLINK-1623           
1 46129U 20057N   26159.33337963  .00102040  00000+0  66997-3 0  9992
2 46129  53.0409 171.7814 0006346  32.2932  66.0527 15.74931565  5944
STARLINK-1596           
1 46141U 20057AA  26159.21665285  .00087613  00000+0  10712-2 0  9995
2 46141  53.0348 154.8963 0006934  34.2240 325.9218 15.59674131321338
STARLINK-1597           
1 46142U 20057AB  26158.40421043  .00109457  00000+0  73046-3 0  9999
2 46142  53.0403 216.1516 0004906  26.8864 333.2408 15.74536378320398
STARLINK-1606           
1 46144U 20057AD  26159.33337963  .00343103  57180-4  89575-3 0  9999
2 46144  53.0327 164.3786 0001866 146.3784 252.2613 15.94451569  5869
